DMSP 5D-3 F16 (USA 172) 
1 28054U 03048A   26192.84806110 -.00000037  00000+0  45705-5 0  9998
2 28054  98.9887 216.8388 0008188  79.4440 323.4960 14.14484830172979
METEOSAT-9 (MSG-2)      
1 28912U 05049B   26192.72683764  .00000120  00000+0  00000+0 0  9994
2 28912   9.4145  53.9209 0002049 357.1027 185.9350  1.00270407  7240
DMSP 5D-3 F17 (USA 191) 
1 29522U 06050A   26192.84790620 -.00000009  00000+0  17982-4 0  9997
2 29522  98.7385 198.9139 0009921 352.6646   7.4381 14.14996026 15916
FENGYUN 3A              
1 32958U 08026A   26192.85749161  .00000016  00000+0  28345-4 0  9996
2 32958  98.6887 133.2298 0009749  60.4614 299.7533 14.19576043938900
GOES 14                 
1 35491U 09033A   26192.80398917 -.00000352  00000+0  00000+0 0  9991
2 35491   1.7505  82.7359 0001876  40.0902 223.4941  1.00099795  6835
DMSP 5D-3 F18 (USA 210) 
1 35951U 09057A   26192.89156433  .00000177  00000+0  11457-3 0  9998
2 35951  98.9053 173.6088 0011027 174.7654 185.3637 14.14910290863086
EWS-G2 (GOES 15)        
1 36411U 10008A   26192.85580865  .00000025  00000+0  00000+0 0  9994
2 36411   1.3426  82.5064 0005196  53.4833 165.2112  1.00268192 59882
COMS 1                  
1 36744U 10032A   26192.34657965 -.00000239  00000+0  00000+0 0  9998
2 36744   4.8643  75.0643 0011264  14.7082 301.5980  0.99168841 51325
FENGYUN 3B              
1 37214U 10059A   26192.85261648  .00000174  00000+0  11304-3 0  9995
2 37214  98.9614 238.9699 0023068 115.6902 353.8615 14.14846673810919
SUOMI NPP               
1 37849U 11061A   26192.86965314  .00000026  00000+0  33164-4 0  9990
2 37849  98.7956 133.5777 0000615 236.0978 124.0140 14.19522247761943
METEOSAT-10 (MSG-3)     
1 38552U 12035B   26192.85011719 -.00000008  00000+0  00000+0 0  9993
2 38552   4.7275  60.8953 0001085  18.1594 156.7978  1.00270156 51105
METOP-B                 
1 38771U 12049A   26192.82642906  .00000039  00000+0  37851-4 0  9998
2 38771  98.6491 243.8325 0001056 276.2615  83.8443 14.21445757716760
INSAT-3D                
1 39216U 13038B   26192.80442250 -.00000337  00000+0  00000+0 0  9993
2 39216   1.9868  82.2295 0000506  84.5038 182.0874  1.00270054 47327
FENGYUN 3C              
1 39260U 13052A   26192.85016145  .00000024  00000+0  33534-4 0  9998
2 39260  98.4995 165.5946 0013816 316.2065  43.8013 14.15760331662053
METEOR-M 2              
1 40069U 14037A   26192.85244036 -.00000063  00000+0 -97109-5 0  9997
2 40069  98.5124 167.7185 0005359 337.7780  22.3165 14.21468144622826
HIMAWARI-8              
1 40267U 14060A   26192.87790485 -.00000271  00000+0  00000+0 0  9997
2 40267   0.0221 306.6640 0001049 222.5270 217.2953  1.00272552 43005
FENGYUN 2G              
1 40367U 14090A   26192.68087582 -.00000299  00000+0  00000+0 0  9997
2 40367   5.6967  72.5183 0004256 151.8575  49.6342  1.00261698 42243
METEOSAT-11 (MSG-4)     
1 40732U 15034A   26192.85193720  .00000062  00000+0  00000+0 0  9990
2 40732   3.2612  70.9557 0002249 352.9573 181.7867  1.00270818  7468
ELEKTRO-L 2             
1 41105U 15074A   26192.41948436 -.00000118  00000+0  00000+0 0  9996
2 41105   6.7510  70.2237 0000888 218.2194 137.3884  1.00272476 38749
SENTINEL-3A             
1 41335U 16011A   26192.83214870  .00000038  00000+0  33749-4 0  9998
2 41335  98.6238 259.8605 0001383  91.0903 269.0436 14.26739162541579
INSAT-3DR               
1 41752U 16054A   26192.89029159 -.00000073  00000+0  00000+0 0  9997
2 41752   0.0611  88.7325 0010640 181.7646  53.8059  1.00271971 36069
HIMAWARI-9              
1 41836U 16064A   26192.87799152  .00000000  00000+0  00000+0 0  9995
2 41836   0.0289  55.5033 0002255 123.3481 207.7688  1.00269999 35450
GOES 16                 
1 41866U 16071A   26192.82938263 -.00000087  00000+0  00000+0 0  9995
2 41866   0.3948  85.5062 0000525  98.5955 299.5179  1.00270880 35354
FENGYUN 4A              
1 41882U 16077A   26192.80329583 -.00000355  00000+0  00000+0 0  9994
2 41882   2.3813  80.0102 0008464 159.1276 103.5301  1.00270073 35175
CYGFM05                 
1 41884U 16078A   26192.86134875  .00016178  00000+0  21090-3 0  9996
2 41884  34.9565  97.0660 0006596   4.0569 356.0208 15.57746572532606
CYGFM04                 
1 41885U 16078B   26192.81661757  .00021434  00000+0  22870-3 0  9994
2 41885  34.9324  63.7757 0004621  46.1119 313.9988 15.62929651532853
CYGFM02                 
1 41886U 16078C   26192.83200258  .00025909  00000+0  24262-3 0  9990
2 41886  34.9406  57.4576 0005356  50.1273 309.9925 15.66178592533037
CYGFM01                 
1 41887U 16078D   26192.83901010  .00016852  00000+0  21378-3 0  9997
2 41887  34.9394  98.0670 0006606 357.3077   2.7611 15.58460515532559
CYGFM08                 
1 41888U 16078E   26192.81881103  .00019720  00000+0  22402-3 0  9992
2 41888  34.9429  77.1100 0006756  33.1202 326.9946 15.61319979532823
CYGFM07                 
1 41890U 16078G   26192.77635744  .00019822  00000+0  22435-3 0  9997
2 41890  34.9448  65.7131 0005046  46.4518 313.6626 15.61426215532844
CYGFM03                 
1 41891U 16078H   26192.81145655  .00019430  00000+0  22003-3 0  9996
2 41891  34.9402  67.4095 0005095  30.6005 329.5017 15.61414965532820
FENGYUN 3D              
1 43010U 17072A   26192.88396691 -.00000193  00000+0 -69291-4 0  9990
2 43010  99.0137 167.7538 0001704  21.8692 338.2556 14.19743824448490
NOAA 20 (JPSS-1)        
1 43013U 17073A   26192.81250225  .00000015  00000+0  28073-4 0  9993
2 43013  98.7774 132.0569 0001261 127.6862 232.4429 14.19516081447965
GOES 17                 
1 43226U 18022A   26192.83232931 -.00000180  00000+0  00000+0 0  9999
2 43226   0.9976  85.3070 0000543  96.7368 317.8350  1.00273239 30674
SENTINEL-3B             
1 43437U 18039A   26192.17410468  .00000038  00000+0  33847-4 0  9992
2 43437  98.6238 259.3610 0001054 120.7417 239.3868 14.26741288427541
FENGYUN 2H              
1 43491U 18050A   26192.86577146 -.00000126  00000+0  00000+0 0  9997
2 43491   3.0910  78.7852 0002265 132.1773 109.6653  1.00267554 29687
METOP-C                 
1 43689U 18087A   26192.84435542  .00000032  00000+0  34298-4 0  9993
2 43689  98.6632 251.9957 0002218  98.2696 261.8733 14.21518425398336
GEO-KOMPSAT-2A          
1 43823U 18100A   26192.80416250 -.00000339  00000+0  00000+0 0  9990
2 43823   0.0255 118.0813 0001947 343.4761 245.9138  1.00271415 27872
METEOR-M2 2             
1 44387U 19038A   26192.90101781 -.00000161  00000+0 -49605-4 0  9991
2 44387  98.9156 180.5521 0000937   9.7493 350.3703 14.24371653364818
ARKTIKA-M 1             
1 47719U 21016A   26188.42887598 -.00000257  00000+0  00000+0 0  9997
2 47719  63.2524  54.6812 7295086 270.0380  14.5466  2.00614486 39194
FENGYUN 3E              
1 49008U 21062A   26192.86510508 -.00000220  00000+0 -82859-4 0  9996
2 49008  98.7501 195.9977 0002414  45.2741 314.8631 14.19905093260087
GOES 18                 
1 51850U 22021A   26192.75163609  .00000101  00000+0  00000+0 0  9993
2 51850   0.0131  84.2137 0000611 110.7307 228.2976  1.00272566  6830
NOAA 21 (JPSS-2)        
1 54234U 22150A   26192.84485433  .00000002  00000+0  21747-4 0  9993
2 54234  98.7061 131.2199 0002750 110.5667 249.5805 14.19540735190043
METEOSAT-12 (MTG-I1)    
1 54743U 22170C   26192.85003051 -.00000004  00000+0  00000+0 0  9990
2 54743   0.7214  19.1046 0003787  82.8397 133.5456  1.00267004 13227
TIANMU-1 03             
1 55973U 23039A   26192.81382889  .00009343  00000+0  18073-3 0  9993
2 55973  97.5236   7.7610 0002854  35.9510 324.1932 15.47979254184646
TIANMU-1 04             
1 55974U 23039B   26192.85823091  .00009849  00000+0  18634-3 0  9997
2 55974  97.5171   6.9631 0003338  25.5625 334.5790 15.48601765184668
TIANMU-1 05             
1 55975U 23039C   26192.79580281  .00009584  00000+0  18584-3 0  9992
2 55975  97.5216   7.3482 0003262  54.7596 305.3958 15.47902026184626
TIANMU-1 06             
1 55976U 23039D   26192.79857328  .00009762  00000+0  18539-3 0  9990
2 55976  97.5224   8.0118 0003367  47.2244 312.9289 15.48497889184654
FENGYUN 3G              
1 56232U 23055A   26192.61838501  .00013307  00000+0  21077-3 0  9998
2 56232  49.9910 220.0356 0007129  39.8490 320.3000 15.53679919183805
METEOR-M2 3             
1 57166U 23091A   26192.83078059 -.00000026  00000+0  74055-5 0  9994
2 57166  98.6070 247.3032 0005150  97.8305 262.3459 14.24048714158023
TIANMU-1 07             
1 57399U 23101A   26192.88822669  .00003752  00000+0  13138-3 0  9994
2 57399  97.2585 242.9913 0003955  71.3352 288.8318 15.30090954165426
TIANMU-1 08             
1 57400U 23101B   26192.85480185  .00003766  00000+0  13183-3 0  9992
2 57400  97.2573 242.7258 0004894  55.3151 304.8551 15.30094676165410
TIANMU-1 09             
1 57401U 23101C   26192.83765144  .00003764  00000+0  13160-3 0  9995
2 57401  97.2532 242.1121 0004561  72.2402 287.9336 15.30134567165413
TIANMU-1 10             
1 57402U 23101D   26192.87113685  .00003804  00000+0  13307-3 0  9995
2 57402  97.2611 243.2205 0005898  63.2008 296.9836 15.30108220165415
FENGYUN 3F              
1 57490U 23111A   26192.84842916 -.00000002  00000+0  19321-4 0  9997
2 57490  98.6826 262.3965 0001332  77.9120 282.2206 14.19943052152361
ARKTIKA-M 2             
1 58584U 23198A   26191.19028483  .00000186  00000+0  00000+0 0  9990
2 58584  63.2187 151.7914 6909064 267.3543  18.7503  2.00608615 18787
TIANMU-1 11             
1 58645U 23205A   26192.88743444  .00003271  00000+0  12522-3 0  9999
2 58645  97.3443 214.0595 0006766 277.0784  82.9686 15.27242842141299
TIANMU-1 12             
1 58646U 23205B   26192.85946747  .00003467  00000+0  13326-3 0  9998
2 58646  97.3432 213.7802 0005593 249.8364 110.2274 15.27073711141276
TIANMU-1 13             
1 58647U 23205C   26192.89289330  .00003397  00000+0  13067-3 0  9995
2 58647  97.3460 214.0919 0005466 226.4572 133.6214 15.27066447141273
